HODOYOSHI-4             
1 40011U 14033B   26197.82080964  .00000940  00000+0  10720-3 0  9994
2 40011  97.5455  21.2146 0022750 203.8790 156.1374 14.88193625653215
DEIMOS-2                
1 40013U 14033D   26197.85820387  .00000729  00000+0  73841-4 0  9999
2 40013  97.5784  71.2995 0001106 110.1143 250.0196 14.93796821642153
HODOYOSHI-3             
1 40015U 14033F   26197.42037492  .00000472  00000+0  60467-4 0  9996
2 40015  97.6447 359.2898 0031327 257.6701 102.1007 14.85438467651965
SPOT 7                  
1 40053U 14034A   26197.83707400  .00000155  00000+0  40870-4 0  9991
2 40053  98.0615 259.5625 0001587  94.2421 265.8961 14.60981533641468
SKYSAT-B                
1 40072U 14037D   26197.44272534  .00000596  00000+0  71529-4 0  9991
2 40072  98.3854 158.0796 0005674 168.9313 191.2027 14.88093555650316
WORLDVIEW-3 (WV-3)      
1 40115U 14048A   26197.81424376  .00000356  00000+0  47888-4 0  9990
2 40115  97.8556 272.2369 0001423 153.3342 206.7946 14.85065656646304
GAOFEN-2                
1 40118U 14049A   26197.83824422 -.00000155  00000+0 -13075-4 0  9992
2 40118  98.0097 262.0151 0008333 129.6742 230.5206 14.80927528643629
YAOGAN-21               
1 40143U 14053A   26197.85579616  .00002339  00000+0  91477-4 0  9995
2 40143  97.1451 236.8230 0007630   2.1597 357.9674 15.26769421659481
YAOGAN-22               
1 40275U 14063A   26197.38928611 -.00000043  00000+0  11304-4 0  9995
2 40275 100.7763 349.1522 0006882 122.7206 237.4569 13.15531517563657
ASNARO                  
1 40298U 14070A   26197.85646682  .00003686  00000+0  17730-3 0  9998
2 40298  97.3444 273.1732 0004865  84.0325 276.1464 15.19393088648517
YAOGAN-24               
1 40310U 14072A   26197.83977529  .00000513  00000+0  81822-4 0  9990
2 40310  98.1528 335.4304 0014714 164.3870 195.7795 14.76120777628091
CBERS 4                 
1 40336U 14079A   26197.86956354 -.00000156  00000+0 -39573-4 0  9992
2 40336  98.3516 253.7674 0000731  53.1488 306.9765 14.35515464608215
YAOGAN-26               
1 40362U 14088A   26197.86996697  .00010710  00000+0  20315-3 0  9993
2 40362  97.0649 197.4083 0001635 331.6021  28.5141 15.48485366642299
SMAP                    
1 40376U 15003A   26197.82334894  .00000166  00000+0  41165-4 0  9998
2 40376  98.1284 204.4992 0001611  94.2357 265.9029 14.63389880611958
KOMPSAT-3A              
1 40536U 15014A   26197.91239079  .00021453  00000+0  29399-3 0  9993
2 40536  97.6893 191.4833 0056068  69.6195 291.1069 15.55498636626433
SENTINEL-2A             
1 40697U 15028A   26197.86505050 -.00000046  00000+0 -10453-5 0  9995
2 40697  98.5681 272.2938 0001283  93.6328 266.5001 14.30814394577975
GAOFEN-8                
1 40701U 15030A   26197.85188458  .00017659  00000+0  35086-3 0  9995
2 40701  97.6887  33.0246 0009961  90.1161 270.1229 15.46991321616030
CARBONITE 1 (CBNT-1)    
1 40718U 15032D   26197.85773593  .00001576  00000+0  19664-3 0  9990
2 40718  97.6516  14.6846 0013997 191.2666 168.8237 14.83673064593740
YAOGAN-27               
1 40878U 15040A   26197.90472711 -.00000337  00000+0 -77616-3 0  9997
2 40878 100.1168 183.0001 0008604 141.4179 218.7551 13.16071502521579
GAOFEN-9 01             
1 40894U 15047A   26197.88713655  .00000446  00000+0  60904-4 0  9996
2 40894  97.6264 232.2311 0028347  45.1569 315.1941 14.82936790584593
YAOGAN-28               
1 41026U 15064A   26197.86511310  .00003544  00000+0  13311-3 0  9996
2 41026  97.3115 335.5348 0012070  88.0103 272.2519 15.27772559595212
YAOGAN-29               
1 41038U 15069A   26197.86353115 -.00000025  00000+0  35190-5 0  9994
2 41038  98.0015 226.5417 0000629  13.1703 346.9526 14.83107231575024
KENT RIDGE 1            
1 41167U 15077B   26197.76133396  .00002336  00000+0  64475-4 0  9995
2 41167  14.9805  46.0141 0008274 296.8325  63.1151 15.23288686585611
GAOFEN-4                
1 41194U 15083A   26197.86114506 -.00000345  00000+0  00000+0 0  9993
2 41194   0.4320  83.7427 0004267 125.6776 140.9759  1.00271819 38829
JASON-3                 
1 41240U 16002A   26197.82799937 -.00000032  00000+0  11867-3 0  9990
2 41240  66.0416  63.5194 0008165 270.7524  89.2559 12.87628712491063
SENTINEL-3A             
1 41335U 16011A   26197.81136017  .00000040  00000+0  34464-4 0  9995
2 41335  98.6236 264.7674 0001354  89.3793 270.7543 14.26740023542288
ZIYUAN 3-02 (ZY 3-02)   
1 41556U 16033A   26197.85385020  .00002655  00000+0  12101-3 0  9995
2 41556  97.3826 273.0580 0014275 179.1230 181.0033 15.21443813562499
CARTOSAT-2C             
1 41599U 16040A   26197.89707826  .00001432  00000+0  71082-4 0  9992
2 41599  97.4468 257.4633 0009407  39.8971 320.2953 15.19270242558224
SKYSAT-C1               
1 41601U 16040C   26197.65226043  .00005107  00000+0  14428-3 0  9990
2 41601  96.9547 227.7813 0000246 251.8457 108.2762 15.36763049562393
LAPAN-A3                
1 41603U 16040E   26197.88693177  .00001728  00000+0  56020-4 0  9993
2 41603  97.1506 193.0625 0008251 268.7072  91.3226 15.33284037559365
GAOFEN-3                
1 41727U 16049A   26197.84711270 -.00000157  00000+0 -34486-4 0  9999
2 41727  98.4011 205.1857 0001769  83.9608 276.1783 14.42218266522921
